SAR-LUPE 2              
1 31797U 07030A   26170.92848171  .00008036  00000+0  14286-3 0  9993
2 31797  98.1045 275.7003 0004096 150.5254 209.6227 15.50496360 57369
SAPPHIRE                
1 39088U 13009C   26170.95045656  .00000067  00000+0  38444-4 0  9996
2 39088  98.4263 350.3406 0010162 237.4939 122.5265 14.35241192696972
PRAETORIAN SDA_602      
1 65565U 25203A   26170.77062047  .00000082  00000+0  62403-4 0  9996
2 65565  81.3029   8.3756 0005934 178.5426 181.5749 13.84277869 39052
PRAETORIAN SDA_603      
1 65566U 25203B   26170.65342253  .00000071  00000+0  53661-4 0  9998
2 65566  81.3033   8.4017 0009572 180.7024 179.4120 13.83905368 39049
PRAETORIAN SDA_604      
1 65567U 25203C   26170.67466568  .00000046  00000+0  31587-4 0  9992
2 65567  81.3052   8.7987 0005398 184.4339 175.6770 13.83047733 39022
PRAETORIAN SDA_605      
1 65568U 25203D   26170.63930480  .00000039  00000+0  24664-4 0  9998
2 65568  81.3018   8.4920 0008215 176.2728 183.8491 13.83434389 39030
PRAETORIAN SDA_606      
1 65569U 25203E   26168.30750804  .00000053  00000+0  37439-4 0  9990
2 65569  81.3055  10.8712 0005744 180.4388 179.6764 13.83407378 38708
PRAETORIAN SDA_607      
1 65570U 25203F   26170.62839176  .00000171  00000+0  14223-3 0  9996
2 65570  81.3037   8.3839 0008758 180.7307 179.3838 13.84284714 39049
PRAETORIAN SDA_608      
1 65571U 25203G   26170.67891631  .00000051  00000+0  35483-4 0  9995
2 65571  81.3006   8.5004 0005940 183.6604 176.4510 13.83817163 39037
PRAETORIAN SDA_609      
1 65572U 25203H   26170.68311735  .00000102  00000+0  80360-4 0  9990
2 65572  81.3049   8.4787 0006822 178.4506 181.6673 13.84208978 39043
PRAETORIAN SDA_610      
1 65573U 25203J   26170.94796112 -.00000038  00000+0 -44758-4 0  9997
2 65573  81.2999   8.2091 0006784 183.5339 176.5771 13.83767551 39072
PRAETORIAN SDA_611      
1 65574U 25203K   26170.94967813  .00000273  00000+0  23818-3 0  9998
2 65574  81.3011   8.3747 0005535 186.3913 173.7174 13.83309580 39069
PRAETORIAN SDA_612      
1 65575U 25203L   26170.64688709  .00000212  00000+0  17649-3 0  9998
2 65575  81.3026   8.2360 0009254 179.8961 180.2199 13.85039697 39058
PRAETORIAN SDA_613      
1 65576U 25203M   26170.66807720  .00000041  00000+0  27053-4 0  9998
2 65576  81.2998   8.6349 0005699 176.9462 183.1730 13.82765262 39021
PRAETORIAN SDA_614      
1 65577U 25203N   26170.63652717  .00000076  00000+0  56657-4 0  9990
2 65577  81.3014   8.3238 0007146 176.7744 183.3461 13.84777487 39056
PRAETORIAN SDA_615      
1 65578U 25203P   26170.68628867  .00000209  00000+0  17647-3 0  9998
2 65578  81.3024   8.2433 0009032 178.3195 181.7993 13.84436803 39054
PRAETORIAN SDA_616      
1 65579U 25203Q   26170.94897446  .00000194  00000+0  16597-3 0  9995
2 65579  81.3060   8.5231 0005429 184.4895 175.6214 13.83268264 39067
PRAETORIAN SDA_617      
1 65580U 25203R   26170.68146133  .00000024  00000+0  11392-4 0  9999
2 65580  81.3036   8.6014 0007393 177.2901 182.8296 13.83150169 39033
PRAETORIAN SDA_618      
1 65581U 25203S   26170.65191963  .00000126  00000+0  10113-3 0  9990
2 65581  81.3022   8.2037 0009648 181.5053 178.6076 13.84668988 39056
PRAETORIAN SDA_619      
1 65582U 25203T   26170.68940424  .00000112  00000+0  90397-4 0  9996
2 65582  81.3048   8.4696 0008095 178.3455 181.7730 13.83806059 39675
PRAETORIAN SDA_620      
1 65583U 25203U   26170.64541848  .00000115  00000+0  93366-4 0  9992
2 65583  81.3031   8.5320 0007644 174.6103 185.5137 13.83617706 39033
PRAETORIAN SDA_621      
1 65584U 25203V   26170.69118413  .00000041  00000+0  25885-4 0  9995
2 65584  81.3020   8.4066 0007486 171.8596 188.2684 13.83801454 39040
PRAETORIAN SDA_601      
1 65585U 25203W   26170.66296090  .00000287  00000+0  25157-3 0  9994
2 65585  81.3041   8.7310 0005449 188.3327 171.7740 13.83168259 39028
